{
  "fetched_at": "2026-05-26T14:38:15.211279+00:00",
  "satellites": {
    "57166": {
      "name": "Meteor M2-3",
      "tle_line1": "1 57166U 23091A   26146.31714442 -.00000004  00000+0  16969-4 0  9994",
      "tle_line2": "2 57166  98.6094 201.7413 0003111 220.5942 139.5005 14.24044603151403"
    },
    "59051": {
      "name": "Meteor M2-4",
      "tle_line1": "1 59051U 24039A   26146.30704178  .00000008  00000+0  23253-4 0  9993",
      "tle_line2": "2 59051  98.7000 105.8819 0006122 227.4005 132.6656 14.22427014116159"
    },
    "38771": {
      "name": "MetOp-B",
      "tle_line1": "1 38771U 12049A   26146.22748357  .00000100  00000+0  65490-4 0  9997",
      "tle_line2": "2 38771  98.6517 198.1633 0003280  67.0549 293.0974 14.21425791710142"
    },
    "43689": {
      "name": "MetOp-C",
      "tle_line1": "1 43689U 18087A   26146.24790482  .00000099  00000+0  64965-4 0  9990",
      "tle_line2": "2 43689  98.6655 206.2511 0000833 150.1523 209.9702 14.21505291391719"
    },
    "60543": {
      "name": "Arctic Weather Satellite",
      "tle_line1": "1 60543U 24149CD  26146.19085983  .00000840  00000+0  93200-4 0  9999",
      "tle_line2": "2 60543  97.6803 217.2842 0002714 146.8393 213.2996 14.89788867 96022"
    }
  }
}